[{"OBJECT_NAME":"REAL","OBJECT_ID":"2025-154G","EPOCH":"2026-03-09T17:20:09.670560","MEAN_MOTION":15.28408058,"ECCENTRICITY":0.00018528,"INCLINATION":97.4133,"RA_OF_ASC_NODE":137.2581,"ARG_OF_PERICENTER":118.5876,"MEAN_ANOMALY":241.555,"EPHEMERIS_TYPE":0,"CLASSIFICATION_TYPE":"U","NORAD_CAT_ID":64875,"ELEMENT_SET_NO":999,"REV_AT_EPOCH":3483,"BSTAR":0.0008290401,"MEAN_MOTION_DOT":0.00022901,"MEAN_MOTION_DDOT":0},{"OBJECT_NAME":"STARLINK-35407","OBJECT_ID":"2025-253R","EPOCH":"2026-03-09T11:15:16.781472","MEAN_MOTION":15.27588831,"ECCENTRICITY":0.00016378,"INCLINATION":42.9964,"RA_OF_ASC_NODE":213.5,"ARG_OF_PERICENTER":213.2147,"MEAN_ANOMALY":146.8603,"EPHEMERIS_TYPE":0,"CLASSIFICATION_TYPE":"U","NORAD_CAT_ID":66334,"ELEMENT_SET_NO":999,"REV_AT_EPOCH":2021,"BSTAR":0.00094235989,"MEAN_MOTION_DOT":0.00025768,"MEAN_MOTION_DDOT":0}]
